[{"OBJECT_NAME":"PUNCH-WFI 2 (SMEX 15C)","OBJECT_ID":"2025-047D","EPOCH":"2026-03-09T22:37:47.775648","MEAN_MOTION":14.74227311,"ECCENTRICITY":0.00102861,"INCLINATION":97.9559,"RA_OF_ASC_NODE":255.8558,"ARG_OF_PERICENTER":135.6777,"MEAN_ANOMALY":224.5257,"EPHEMERIS_TYPE":0,"CLASSIFICATION_TYPE":"U","NORAD_CAT_ID":63181,"ELEMENT_SET_NO":999,"REV_AT_EPOCH":5343,"BSTAR":0.00015546473,"MEAN_MOTION_DOT":9.78e-6,"MEAN_MOTION_DDOT":0},{"OBJECT_NAME":"SCOUT G-1 DEB","OBJECT_ID":"1983-063C","EPOCH":"2026-03-09T12:46:05.092032","MEAN_MOTION":14.73209152,"ECCENTRICITY":0.00159051,"INCLINATION":82.365,"RA_OF_ASC_NODE":95.6822,"ARG_OF_PERICENTER":187.6608,"MEAN_ANOMALY":172.436,"EPHEMERIS_TYPE":0,"CLASSIFICATION_TYPE":"U","NORAD_CAT_ID":14222,"ELEMENT_SET_NO":999,"REV_AT_EPOCH":26262,"BSTAR":0.00043059105,"MEAN_MOTION_DOT":2.804e-5,"MEAN_MOTION_DDOT":0}]
